{"type": "FeatureCollection", "features": [ {"type": "Feature", "properties": {"norad_id": 66571, "name": "STARLINK-35836", "group": "last-30-days", "lat": 13.63152561165747, "lon": -12.459728308924364, "alt_km": 336.0018983536638, "timestamp": "2025-12-02T08:59:31.504492+00:00", "meta": {"OBJECT_NAME": "STARLINK-35836", "OBJECT_ID": "2025-268Q", "EPOCH": "2025-12-02T04:00:03.998880", "MEAN_MOTION": 15.78228805, "ECCENTRICITY": 0.0001717, "INCLINATION": 42.9973, "RA_OF_ASC_NODE": 183.8938, "ARG_OF_PERICENTER": 277.7712, "MEAN_ANOMALY": 139.2445, "EPHEMERIS_TYPE": 0, "CLASSIFICATION_TYPE": "U", "NORAD_CAT_ID": 66571, "ELEMENT_SET_NO": 999, "REV_AT_EPOCH": 297, "BSTAR": -0.010594, "MEAN_MOTION_DOT": -0.01664048, "MEAN_MOTION_DDOT": 0}, "tle": {"line1": "1 66571U 25268Q   25336.16671295 -.01664048  00000+0 -10594-1 0  9994", "line2": "2 66571  42.9973 183.8938 0001717 277.7712 139.2445 15.78228805  2972"}}, "geometry": {"type": "Point", "coordinates": [-12.459728308924364, 13.63152561165747]}}, {"type": "Feature", "properties": {"norad_id": 66572, "name": "STARLINK-35870", "group": "last-30-days", "lat": 12.245136423763746, "lon": -10.847805426294723, "alt_km": 336.3760908493068, "timestamp": "2025-12-02T08:59:31.504507+00:00", "meta": {"OBJECT_NAME": "STARLINK-35870", "OBJECT_ID": "2025-268R", "EPOCH": "2025-12-02T04:00:03.998880", "MEAN_MOTION": 15.78170004, "ECCENTRICITY": 0.000175, "INCLINATION": 42.9978, "RA_OF_ASC_NODE": 183.8888, "ARG_OF_PERICENTER": 278.2405, "MEAN_ANOMALY": 140.9198, "EPHEMERIS_TYPE": 0, "CLASSIFICATION_TYPE": "U", "NORAD_CAT_ID": 66572, "ELEMENT_SET_NO": 999, "REV_AT_EPOCH": 297, "BSTAR": -0.010705, "MEAN_MOTION_DOT": -0.01675591, "MEAN_MOTION_DDOT": 0}, "tle": {"line1": "1 66572U 25268R   25336.16671295 -.01675591  00000+0 -10705-1 0  9994", "line2": "2 66572  42.9978 183.8888 0001750 278.2405 140.9198 15.78170004  2975"}}, "geometry": {"type": "Point", "coordinates": [-10.847805426294723, 12.245136423763746]}}, {"type": "Feature", "properties": {"norad_id": 66573, "name": "STARLINK-35650", "group": "last-30-days", "lat": 10.890030046033317, "lon": -9.300090983353513, "alt_km": 336.76396916874546, "timestamp": "2025-12-02T08:59:31.504517+00:00", "meta": {"OBJECT_NAME": "STARLINK-35650", "OBJECT_ID": "2025-268S", "EPOCH": "2025-12-02T04:00:03.998880", "MEAN_MOTION": 15.78136265, "ECCENTRICITY": 0.0001841, "INCLINATION": 42.9973, "RA_OF_ASC_NODE": 183.8833, "ARG_OF_PERICENTER": 281.9493, "MEAN_ANOMALY": 139.2761, "EPHEMERIS_TYPE": 0, "CLASSIFICATION_TYPE": "U", "NORAD_CAT_ID": 66573, "ELEMENT_SET_NO": 999, "REV_AT_EPOCH": 297, "BSTAR": -0.010826, "MEAN_MOTION_DOT": -0.01690182, "MEAN_MOTION_DDOT": 0}, "tle": {"line1": "1 66573U 25268S   25336.16671295 -.01690182  00000+0 -10826-1 0  9992", "line2": "2 66573  42.9973 183.8833 0001841 281.9493 139.2761 15.78136265  2978"}}, "geometry": {"type": "Point", "coordinates": [-9.300090983353513, 10.890030046033317]}}, {"type": "Feature", "properties": {"norad_id": 66574, "name": "STARLINK-35812", "group": "last-30-days", "lat": 9.581344340141099, "lon": -7.826795338165172, "alt_km": 336.7254411504382, "timestamp": "2025-12-02T08:59:31.504527+00:00", "meta": {"OBJECT_NAME": "STARLINK-35812", "OBJECT_ID": "2025-268T", "EPOCH": "2025-12-02T04:00:03.998880", "MEAN_MOTION": 15.78130087, "ECCENTRICITY": 0.0001781, "INCLINATION": 42.9975, "RA_OF_ASC_NODE": 183.878, "ARG_OF_PERICENTER": 272.9764, "MEAN_ANOMALY": 150.2118, "EPHEMERIS_TYPE": 0, "CLASSIFICATION_TYPE": "U", "NORAD_CAT_ID": 66574, "ELEMENT_SET_NO": 999, "REV_AT_EPOCH": 297, "BSTAR": -0.010864, "MEAN_MOTION_DOT": -0.0169492, "MEAN_MOTION_DDOT": 0}, "tle": {"line1": "1 66574U 25268T   25336.16671295 -.01694920  00000+0 -10864-1 0  9999", "line2": "2 66574  42.9975 183.8780 0001781 272.9764 150.2118 15.78130087  2971"}}, "geometry": {"type": "Point", "coordinates": [-7.826795338165172, 9.581344340141099]}}, {"type": "Feature", "properties": {"norad_id": 66575, "name": "STARLINK-35810", "group": "last-30-days", "lat": 8.185754068824476, "lon": -6.275318847773686, "alt_km": 337.04353588239064, "timestamp": "2025-12-02T08:59:31.504537+00:00", "meta": {"OBJECT_NAME": "STARLINK-35810", "OBJECT_ID": "2025-268U", "EPOCH": "2025-12-02T04:00:03.998880", "MEAN_MOTION": 15.78075123, "ECCENTRICITY": 0.0001652, "INCLINATION": 42.9974, "RA_OF_ASC_NODE": 183.8728, "ARG_OF_PERICENTER": 273.901, "MEAN_ANOMALY": 151.404, "EPHEMERIS_TYPE": 0, "CLASSIFICATION_TYPE": "U", "NORAD_CAT_ID": 66575, "ELEMENT_SET_NO": 999, "REV_AT_EPOCH": 297, "BSTAR": -0.010931, "MEAN_MOTION_DOT": -0.0170028, "MEAN_MOTION_DDOT": 0}, "tle": {"line1": "1 66575U 25268U   25336.16671295 -.01700280  00000+0 -10931-1 0  9992", "line2": "2 66575  42.9974 183.8728 0001652 273.9010 151.4040 15.78075123  2971"}}, "geometry": {"type": "Point", "coordinates": [-6.275318847773686, 8.185754068824476]}}, {"type": "Feature", "properties": {"norad_id": 66576, "name": "STARLINK-35814", "group": "last-30-days", "lat": 6.801937720915495, "lon": -4.754406303349601, "alt_km": 337.46004346403515, "timestamp": "2025-12-02T08:59:31.504547+00:00", "meta": {"OBJECT_NAME": "STARLINK-35814", "OBJECT_ID": "2025-268V", "EPOCH": "2025-12-02T04:00:03.998880", "MEAN_MOTION": 15.78032909, "ECCENTRICITY": 0.0001896, "INCLINATION": 42.9975, "RA_OF_ASC_NODE": 183.8673, "ARG_OF_PERICENTER": 277.0444, "MEAN_ANOMALY": 150.3471, "EPHEMERIS_TYPE": 0, "CLASSIFICATION_TYPE": "U", "NORAD_CAT_ID": 66576, "ELEMENT_SET_NO": 999, "REV_AT_EPOCH": 297, "BSTAR": -0.011044, "MEAN_MOTION_DOT": -0.01713076, "MEAN_MOTION_DDOT": 0}, "tle": {"line1": "1 66576U 25268V   25336.16671295 -.01713076  00000+0 -11044-1 0  9996", "line2": "2 66576  42.9975 183.8673 0001896 277.0444 150.3471 15.78032909  2979"}}, "geometry": {"type": "Point", "coordinates": [-4.754406303349601, 6.801937720915495]}}, {"type": "Feature", "properties": {"norad_id": 66577, "name": "STARLINK-35815", "group": "last-30-days", "lat": 5.398383748999343, "lon": -3.2257126824111477, "alt_km": 337.60307189781906, "timestamp": "2025-12-02T08:59:31.504557+00:00", "meta": {"OBJECT_NAME": "STARLINK-35815", "OBJECT_ID": "2025-268W", "EPOCH": "2025-12-02T04:00:03.998880", "MEAN_MOTION": 15.77986635, "ECCENTRICITY": 0.0001699, "INCLINATION": 42.9974, "RA_OF_ASC_NODE": 183.8621, "ARG_OF_PERICENTER": 271.2275, "MEAN_ANOMALY": 158.2733, "EPHEMERIS_TYPE": 0, "CLASSIFICATION_TYPE": "U", "NORAD_CAT_ID": 66577, "ELEMENT_SET_NO": 999, "REV_AT_EPOCH": 297, "BSTAR": -0.011219, "MEAN_MOTION_DOT": -0.01733662, "MEAN_MOTION_DDOT": 0}, "tle": {"line1": "1 66577U 25268W   25336.16671295 -.01733662  00000+0 -11219-1 0  9994", "line2": "2 66577  42.9974 183.8621 0001699 271.2275 158.2733 15.77986635  2972"}}, "geometry": {"type": "Point", "coordinates": [-3.2257126824111477, 5.398383748999343]}}, {"type": "Feature", "properties": {"norad_id": 66578, "name": "STARLINK-35743", "group": "last-30-days", "lat": 4.06948250630661, "lon": -1.7886639575130439, "alt_km": 337.8377679283785, "timestamp": "2025-12-02T08:59:31.504568+00:00", "meta": {"OBJECT_NAME": "STARLINK-35743", "OBJECT_ID": "2025-268X", "EPOCH": "2025-12-02T04:00:03.998880", "MEAN_MOTION": 15.77985856, "ECCENTRICITY": 0.0001859, "INCLINATION": 42.9974, "RA_OF_ASC_NODE": 183.8573, "ARG_OF_PERICENTER": 273.1529, "MEAN_ANOMALY": 158.3104, "EPHEMERIS_TYPE": 0, "CLASSIFICATION_TYPE": "U", "NORAD_CAT_ID": 66578, "ELEMENT_SET_NO": 999, "REV_AT_EPOCH": 297, "BSTAR": -0.011349, "MEAN_MOTION_DOT": -0.01751383, "MEAN_MOTION_DDOT": 0}, "tle": {"line1": "1 66578U 25268X   25336.16671295 -.01751383  00000+0 -11349-1 0  9999", "line2": "2 66578  42.9974 183.8573 0001859 273.1529 158.3104 15.77985856  2977"}}, "geometry": {"type": "Point", "coordinates": [-1.7886639575130439, 4.06948250630661]}}, {"type": "Feature", "properties": {"norad_id": 66579, "name": "STARLINK-35868", "group": "last-30-days", "lat": 2.639963680085458, "lon": -0.2514285513152757, "alt_km": 338.2571068605357, "timestamp": "2025-12-02T08:59:31.504580+00:00", "meta": {"OBJECT_NAME": "STARLINK-35868", "OBJECT_ID": "2025-268Y", "EPOCH": "2025-12-02T04:00:03.998880", "MEAN_MOTION": 15.77931944, "ECCENTRICITY": 0.0001712, "INCLINATION": 42.9976, "RA_OF_ASC_NODE": 183.8517, "ARG_OF_PERICENTER": 276.4957, "MEAN_ANOMALY": 157.1149, "EPHEMERIS_TYPE": 0, "CLASSIFICATION_TYPE": "U", "NORAD_CAT_ID": 66579, "ELEMENT_SET_NO": 999, "REV_AT_EPOCH": 297, "BSTAR": -0.011673, "MEAN_MOTION_DOT": -0.01791294, "MEAN_MOTION_DDOT": 0}, "tle": {"line1": "1 66579U 25268Y   25336.16671295 -.01791294  00000+0 -11673-1 0  9995", "line2": "2 66579  42.9976 183.8517 0001712 276.4957 157.1149 15.77931944  2972"}}, "geometry": {"type": "Point", "coordinates": [-0.2514285513152757, 2.639963680085458]}}, {"type": "Feature", "properties": {"norad_id": 66580, "name": "STARLINK-35872", "group": "last-30-days", "lat": 1.305940629747701, "lon": 1.1782900069386502, "alt_km": 338.3283951269459, "timestamp": "2025-12-02T08:59:31.504590+00:00", "meta": {"OBJECT_NAME": "STARLINK-35872", "OBJECT_ID": "2025-268Z", "EPOCH": "2025-12-02T04:00:03.998880", "MEAN_MOTION": 15.77936409, "ECCENTRICITY": 0.0001664, "INCLINATION": 42.9975, "RA_OF_ASC_NODE": 183.8469, "ARG_OF_PERICENTER": 272.1074, "MEAN_ANOMALY": 163.4649, "EPHEMERIS_TYPE": 0, "CLASSIFICATION_TYPE": "U", "NORAD_CAT_ID": 66580, "ELEMENT_SET_NO": 999, "REV_AT_EPOCH": 297, "BSTAR": -0.011946, "MEAN_MOTION_DOT": -0.01828185, "MEAN_MOTION_DDOT": 0}, "tle": {"line1": "1 66580U 25268Z   25336.16671295 -.01828185  00000+0 -11946-1 0  9990", "line2": "2 66580  42.9975 183.8469 0001664 272.1074 163.4649 15.77936409  2974"}}, "geometry": {"type": "Point", "coordinates": [1.1782900069386502, 1.305940629747701]}}]}